start=new Date('2021-08-22T00:00:00.000Z').valueOf();
sats=[{"REV_AT_EPOCH":"360","ELEMENT_SET_NO":"999","LAUNCH_DATE":"2021-04-29","COUNTRY_CODE":"US","ARG_OF_PERICENTER":"87.0612","RCS_SIZE":"LARGE","OBJECT_ID":"2021-036U","MEAN_MOTION_DDOT":"0.0000000000000","EPHEMERIS_TYPE":"0","CLASSIFICATION_TYPE":"U","MEAN_MOTION_DOT":"-0.00028940","SEMIMAJOR_AXIS":"6925.326","APOAPSIS":"548.011","GP_ID":"183215001","TLE_LINE2":"2 48294  53.0574 337.1128 0001183  87.0612  31.3749 15.06407203  3609","FILE":"3101032","DECAY_DATE":null,"REF_FRAME":"TEME","PERIAPSIS":"546.372","PERIOD":"95.592","RA_OF_ASC_NODE":"337.1128","MEAN_ELEMENT_THEORY":"SGP4","CENTER_NAME":"EARTH","TLE_LINE1":"1 48294U 21036U   21233.91668981 -.00028940  00000-0 -19315-2 0  9994","MEAN_MOTION":"15.06407203","EPOCH":"2021-08-21T22:00:01.999584","OBJECT_NAME":"STARLINK-2533","NORAD_CAT_ID":"48294","OBJECT_TYPE":"PAYLOAD","ECCENTRICITY":"0.00011830","INCLINATION":"53.0574","TIME_SYSTEM":"UTC","BSTAR":"-0.00193150000000","SITE":"AFETR","MEAN_ANOMALY":"31.3749"},{"DECAY_DATE":null,"FILE":"3101054","REF_FRAME":"TEME","PERIAPSIS":"546.450","PERIOD":"95.594","RA_OF_ASC_NODE":"335.9904","MEAN_ELEMENT_THEORY":"SGP4","CENTER_NAME":"EARTH","TLE_LINE1":"1 48295U 21036V   21234.16667824  .00046268  00000-0  31078-2 0  9999","OBJECT_NAME":"STARLINK-2535","MEAN_MOTION":"15.06363851","EPOCH":"2021-08-22T04:00:00.999936","NORAD_CAT_ID":"48295","OBJECT_TYPE":"PAYLOAD","ECCENTRICITY":"0.00012620","INCLINATION":"53.0576","TIME_SYSTEM":"UTC","BSTAR":"0.00310780000000","SITE":"AFETR","MEAN_ANOMALY":"319.4417","REV_AT_EPOCH":"1861","ELEMENT_SET_NO":"999","LAUNCH_DATE":"2021-04-29","COUNTRY_CODE":"US","ARG_OF_PERICENTER":"95.4761","RCS_SIZE":"LARGE","OBJECT_ID":"2021-036V","MEAN_MOTION_DDOT":"0.0000000000000","EPHEMERIS_TYPE":"0","CLASSIFICATION_TYPE":"U","MEAN_MOTION_DOT":"0.00046268","SEMIMAJOR_AXIS":"6925.459","APOAPSIS":"548.198","GP_ID":"183216087","TLE_LINE2":"2 48295  53.0576 335.9904 0001262  95.4761 319.4417 15.06363851 18615"},{"FILE":"3101032","DECAY_DATE":null,"REF_FRAME":"TEME","PERIAPSIS":"546.556","PERIOD":"95.597","RA_OF_ASC_NODE":"337.1151","MEAN_ELEMENT_THEORY":"SGP4","CENTER_NAME":"EARTH","MEAN_MOTION":"15.06320253","TLE_LINE1":"1 48296U 21036W   21233.91668981  .00117205  00000-0  77744-2 0  9997","EPOCH":"2021-08-21T22:00:01.999584","OBJECT_NAME":"STARLINK-2546","NORAD_CAT_ID":"48296","OBJECT_TYPE":"PAYLOAD","ECCENTRICITY":"0.00013020","INCLINATION":"53.0568","TIME_SYSTEM":"UTC","BSTAR":"0.00777440000000","MEAN_ANOMALY":"56.3254","SITE":"AFETR","REV_AT_EPOCH":"359","ELEMENT_SET_NO":"999","LAUNCH_DATE":"2021-04-29","COUNTRY_CODE":"US","ARG_OF_PERICENTER":"102.1149","RCS_SIZE":"LARGE","OBJECT_ID":"2021-036W","MEAN_MOTION_DDOT":"0.0000000000000","EPHEMERIS_TYPE":"0","CLASSIFICATION_TYPE":"U","MEAN_MOTION_DOT":"0.00117205","SEMIMAJOR_AXIS":"6925.593","APOAPSIS":"548.360","GP_ID":"183214003","TLE_LINE2":"2 48296  53.0568 337.1151 0001302 102.1149  56.3254 15.06320253  3592"},{"ARG_OF_PERICENTER":"104.7267","LAUNCH_DATE":"2021-04-29","COUNTRY_CODE":"US","ELEMENT_SET_NO":"999","REV_AT_EPOCH":"1861","TLE_LINE2":"2 48297  53.0565 335.9930 0001139 104.7267 350.1376 15.06374821 18617","GP_ID":"183217005","APOAPSIS":"548.080","MEAN_MOTION_DOT":"0.00042740","SEMIMAJOR_AXIS":"6925.426","EPHEMERIS_TYPE":"0","CLASSIFICATION_TYPE":"U","OBJECT_ID":"2021-036X","MEAN_MOTION_DDOT":"0.0000000000000","RCS_SIZE":"LARGE","EPOCH":"2021-08-22T04:00:00.999936","TLE_LINE1":"1 48297U 21036X   21234.16667824  .00042740  00000-0  28728-2 0  9990","MEAN_MOTION":"15.06374821","OBJECT_NAME":"STARLINK-2544","CENTER_NAME":"EARTH","RA_OF_ASC_NODE":"335.9930","MEAN_ELEMENT_THEORY":"SGP4","PERIAPSIS":"546.502","PERIOD":"95.594","REF_FRAME":"TEME","DECAY_DATE":null,"FILE":"3101098","BSTAR":"0.00287280000000","MEAN_ANOMALY":"350.1376","SITE":"AFETR","INCLINATION":"53.0565","TIME_SYSTEM":"UTC","ECCENTRICITY":"0.00011390","OBJECT_TYPE":"PAYLOAD","NORAD_CAT_ID":"48297"},{"NORAD_CAT_ID":"48298","ECCENTRICITY":"0.00010780","OBJECT_TYPE":"PAYLOAD","INCLINATION":"53.0562","TIME_SYSTEM":"UTC","BSTAR":"0.00274250000000","SITE":"AFETR","MEAN_ANOMALY":"8.8723","REF_FRAME":"TEME","DECAY_DATE":null,"FILE":"3101067","RA_OF_ASC_NODE":"335.9926","MEAN_ELEMENT_THEORY":"SGP4","PERIAPSIS":"546.551","PERIOD":"95.594","CENTER_NAME":"EARTH","MEAN_MOTION":"15.06372722","TLE_LINE1":"1 48298U 21036Y   21234.16667824  .00040775  00000-0  27425-2 0  9990","EPOCH":"2021-08-22T04:00:00.999936","OBJECT_NAME":"STARLINK-2559","OBJECT_ID":"2021-036Y","MEAN_MOTION_DDOT":"0.0000000000000","RCS_SIZE":"LARGE","EPHEMERIS_TYPE":"0","CLASSIFICATION_TYPE":"U","APOAPSIS":"548.044","MEAN_MOTION_DOT":"0.00040775","SEMIMAJOR_AXIS":"6925.432","TLE_LINE2":"2 48298  53.0562 335.9926 0001078 105.9605   8.8723 15.06372722 18612","GP_ID":"183217006","REV_AT_EPOCH":"1861","ELEMENT_SET_NO":"999","ARG_OF_PERICENTER":"105.9605","LAUNCH_DATE":"2021-04-29","COUNTRY_CODE":"US"},{"TLE_LINE1":"1 48299U 21036Z   21233.91668981 -.00032047  00000-0 -21414-2 0  9995","MEAN_MOTION":"15.06414609","OBJECT_NAME":"STARLINK-2557","EPOCH":"2021-08-21T22:00:01.999584","CENTER_NAME":"EARTH","PERIAPSIS":"546.397","PERIOD":"95.591","RA_OF_ASC_NODE":"337.0978","MEAN_ELEMENT_THEORY":"SGP4","DECAY_DATE":null,"FILE":"3101032","REF_FRAME":"TEME","BSTAR":"-0.00214140000000","MEAN_ANOMALY":"133.1766","SITE":"AFETR","INCLINATION":"53.0551","TIME_SYSTEM":"UTC","OBJECT_TYPE":"PAYLOAD","ECCENTRICITY":"0.00011150","NORAD_CAT_ID":"48299","LAUNCH_DATE":"2021-04-29","COUNTRY_CODE":"US","ARG_OF_PERICENTER":"85.2236","ELEMENT_SET_NO":"999","REV_AT_EPOCH":"359","GP_ID":"183215593","TLE_LINE2":"2 48299  53.0551 337.0978 0001115  85.2236 133.1766 15.06414609  3594","MEAN_MOTION_DOT":"-0.00032047","SEMIMAJOR_AXIS":"6925.304","APOAPSIS":"547.941","EPHEMERIS_TYPE":"0","CLASSIFICATION_TYPE":"U","RCS_SIZE":"LARGE","OBJECT_ID":"2021-036Z","MEAN_MOTION_DDOT":"0.0000000000000"},{"ELEMENT_SET_NO":"999","ARG_OF_PERICENTER":"136.2805","COUNTRY_CODE":"US","LAUNCH_DATE":"2021-04-29","REV_AT_EPOCH":"1783","APOAPSIS":"548.162","SEMIMAJOR_AXIS":"6925.368","MEAN_MOTION_DOT":"-0.00000073","TLE_LINE2":"2 48300  53.0664 347.8837 0001342 136.2805 223.8291 15.06393763 17835","GP_ID":"183213503","MEAN_MOTION_DDOT":"0.0000000000000","OBJECT_ID":"2021-036AA","RCS_SIZE":"LARGE","CLASSIFICATION_TYPE":"U","EPHEMERIS_TYPE":"0","CENTER_NAME":"EARTH","TLE_LINE1":"1 48300U 21036AA  21233.73546570 -.00000073  00000-0  13968-4 0  9997","OBJECT_NAME":"STARLINK-2538","MEAN_MOTION":"15.06393763","EPOCH":"2021-08-21T17:39:04.236480","REF_FRAME":"TEME","FILE":"3101032","DECAY_DATE":null,"MEAN_ELEMENT_THEORY":"SGP4","RA_OF_ASC_NODE":"347.8837","PERIOD":"95.593","PERIAPSIS":"546.303","TIME_SYSTEM":"UTC","INCLINATION":"53.0664","SITE":"AFETR","MEAN_ANOMALY":"223.8291","BSTAR":"0.00001396800000","NORAD_CAT_ID":"48300","ECCENTRICITY":"0.00013420","OBJECT_TYPE":"PAYLOAD"},{"GP_ID":"183214252","TLE_LINE2":"2 48301  53.0498 347.6646 0001256 132.1772 227.9324 15.06393292 17838","SEMIMAJOR_AXIS":"6925.369","MEAN_MOTION_DOT":"0.00001051","APOAPSIS":"548.104","CLASSIFICATION_TYPE":"U","EPHEMERIS_TYPE":"0","RCS_SIZE":"LARGE","MEAN_MOTION_DDOT":"0.0000000000000","OBJECT_ID":"2021-036AB","COUNTRY_CODE":"US","LAUNCH_DATE":"2021-04-29","ARG_OF_PERICENTER":"132.1772","ELEMENT_SET_NO":"999","REV_AT_EPOCH":"1783","MEAN_ANOMALY":"227.9324","SITE":"AFETR","BSTAR":"0.00008944600000","TIME_SYSTEM":"UTC","INCLINATION":"53.0498","OBJECT_TYPE":"PAYLOAD","ECCENTRICITY":"0.00012560","NORAD_CAT_ID":"48301","TLE_LINE1":"1 48301U 21036AB  21233.79812348  .00001051  00000-0  89446-4 0  9993","MEAN_MOTION":"15.06393292","OBJECT_NAME":"STARLINK-2537","EPOCH":"2021-08-21T19:09:17.868672","CENTER_NAME":"EARTH","PERIOD":"95.593","PERIAPSIS":"546.364","MEAN_ELEMENT_THEORY":"SGP4","RA_OF_ASC_NODE":"347.6646","DECAY_DATE":null,"FILE":"3101032","REF_FRAME":"TEME"},{"TLE_LINE2":"2 48302  53.0531 347.6623 0001221 121.9281 238.1827 15.06394981 17833","GP_ID":"183215002","APOAPSIS":"548.075","SEMIMAJOR_AXIS":"6925.364","MEAN_MOTION_DOT":"-0.00000569","CLASSIFICATION_TYPE":"U","EPHEMERIS_TYPE":"0","MEAN_MOTION_DDOT":"0.0000000000000","OBJECT_ID":"2021-036AC","RCS_SIZE":"LARGE","ARG_OF_PERICENTER":"121.9281","COUNTRY_CODE":"US","LAUNCH_DATE":"2021-04-29","ELEMENT_SET_NO":"999","REV_AT_EPOCH":"1783","SITE":"AFETR","MEAN_ANOMALY":"238.1827","BSTAR":"-0.00001933200000","TIME_SYSTEM":"UTC","INCLINATION":"53.0531","ECCENTRICITY":"0.00012210","OBJECT_TYPE":"PAYLOAD","NORAD_CAT_ID":"48302","MEAN_MOTION":"15.06394981","TLE_LINE1":"1 48302U 21036AC  21233.79443801 -.00000569  00000-0 -19332-4 0  9990","EPOCH":"2021-08-21T19:03:59.444064","OBJECT_NAME":"STARLINK-2556","CENTER_NAME":"EARTH","MEAN_ELEMENT_THEORY":"SGP4","RA_OF_ASC_NODE":"347.6623","PERIOD":"95.592","PERIAPSIS":"546.383","REF_FRAME":"TEME","FILE":"3101032","DECAY_DATE":null},{"TIME_SYSTEM":"UTC","INCLINATION":"53.0553","MEAN_ANOMALY":"219.4394","SITE":"AFETR","BSTAR":"-0.00003886600000","NORAD_CAT_ID":"48303","ECCENTRICITY":"0.00013110","OBJECT_TYPE":"PAYLOAD","CENTER_NAME":"EARTH","TLE_LINE1":"1 48303U 21036AD  21233.72440674 -.00000860  00000-0 -38866-4 0  9996","MEAN_MOTION":"15.06394304","EPOCH":"2021-08-21T17:23:08.742336","OBJECT_NAME":"STARLINK-2530","REF_FRAME":"TEME","FILE":"3101032","DECAY_DATE":null,"MEAN_ELEMENT_THEORY":"SGP4","RA_OF_ASC_NODE":"347.9757","PERIOD":"95.593","PERIAPSIS":"546.323","APOAPSIS":"548.139","SEMIMAJOR_AXIS":"6925.366","MEAN_MOTION_DOT":"-0.00000860","TLE_LINE2":"2 48303  53.0553 347.9757 0001311 140.6690 219.4394 15.06394304 17820","GP_ID":"183215240","MEAN_MOTION_DDOT":"0.0000000000000","OBJECT_ID":"2021-036AD","RCS_SIZE":"LARGE","CLASSIFICATION_TYPE":"U","EPHEMERIS_TYPE":"0","ELEMENT_SET_NO":"999","ARG_OF_PERICENTER":"140.6690","COUNTRY_CODE":"US","LAUNCH_DATE":"2021-04-29","REV_AT_EPOCH":"1782"}];
